{
  "type": "FeatureCollection",
  "features": [
    {
      "type": "Feature",
      "properties": {
        "norad_id": 31177,
        "name": "FENGYUN 1C DEB",
        "group": "fengyun-1c-debris",
        "lat": 1.651051054316161,
        "lon": 85.89832197066231,
        "alt_km": 1137.943890722012,
        "timestamp": "2025-12-18T19:29:52.825044+00:00",
        "meta_object_name": "FENGYUN 1C DEB",
        "meta_object_id": "1999-025BJF",
        "meta_epoch": "2025-12-08T17:24:07.966080",
        "meta_mean_motion": 13.622528,
        "meta_eccentricity": 0.0310599,
        "meta_inclination": 98.7576,
        "meta_ra_of_asc_node": 256.5653,
        "meta_arg_of_pericenter": 324.298,
        "meta_mean_anomaly": 91.0785,
        "meta_ephemeris_type": 0,
        "meta_classification_type": "U",
        "meta_norad_cat_id": 31177,
        "meta_element_set_no": 999,
        "meta_rev_at_epoch": 66157,
        "meta_bstar": 0.0076571,
        "meta_mean_motion_dot": 8.152e-05,
        "meta_mean_motion_ddot": 0,
        "tle_line1": "1 31177U 99025BJF 25342.72509220  .00008152  00000+0  76571-2 0  9990",
        "tle_line2": "2 31177  98.7576 256.5653 0310599 324.2980  91.0785 13.62252800661574"
      },
      "geometry": {
        "type": "Point",
        "coordinates": [
          85.89832197066231,
          1.651051054316161
        ]
      }
    },
    {
      "type": "Feature",
      "properties": {
        "norad_id": 31178,
        "name": "FENGYUN 1C DEB",
        "group": "fengyun-1c-debris",
        "lat": 55.450421129321455,
        "lon": -170.3803421281822,
        "alt_km": 902.6170972071823,
        "timestamp": "2025-12-18T19:29:52.825054+00:00",
        "meta_object_name": "FENGYUN 1C DEB",
        "meta_object_id": "1999-025BJG",
        "meta_epoch": "2025-12-18T07:05:42.469152",
        "meta_mean_motion": 14.22259738,
        "meta_eccentricity": 0.01258717,
        "meta_inclination": 99.5125,
        "meta_ra_of_asc_node": 354.9683,
        "meta_arg_of_pericenter": 299.9049,
        "meta_mean_anomaly": 58.9671,
        "meta_ephemeris_type": 0,
        "meta_classification_type": "U",
        "meta_norad_cat_id": 31178,
        "meta_element_set_no": 999,
        "meta_rev_at_epoch": 95894,
        "meta_bstar": 0.0016924306,
        "meta_mean_motion_dot": 4.025e-05,
        "meta_mean_motion_ddot": 0,
        "tle_line1": "1 31178U 99025BJG 25352.29563043  .00004025  00000+0  16924-2 0  9998",
        "tle_line2": "2 31178  99.5125 354.9683 0125871 299.9049  58.9671 14.22259738958941"
      },
      "geometry": {
        "type": "Point",
        "coordinates": [
          -170.3803421281822,
          55.450421129321455
        ]
      }
    },
    {
      "type": "Feature",
      "properties": {
        "norad_id": 31179,
        "name": "FENGYUN 1C DEB",
        "group": "fengyun-1c-debris",
        "lat": 32.427489216637156,
        "lon": 6.7860349237099875,
        "alt_km": 814.327826818766,
        "timestamp": "2025-12-18T19:29:52.825075+00:00",
        "meta_object_name": "FENGYUN 1C DEB",
        "meta_object_id": "1999-025BJH",
        "meta_epoch": "2025-12-18T07:16:13.358496",
        "meta_mean_motion": 13.91941548,
        "meta_eccentricity": 0.02152306,
        "meta_inclination": 99.0195,
        "meta_ra_of_asc_node": 12.0814,
        "meta_arg_of_pericenter": 345.6132,
        "meta_mean_anomaly": 13.8961,
        "meta_ephemeris_type": 0,
        "meta_classification_type": "U",
        "meta_norad_cat_id": 31179,
        "meta_element_set_no": 999,
        "meta_rev_at_epoch": 62018,
        "meta_bstar": 0.00082156675,
        "meta_mean_motion_dot": 1.222e-05,
        "meta_mean_motion_ddot": 0,
        "tle_line1": "1 31179U 99025BJH 25352.30293239  .00001222  00000+0  82157-3 0  9996",
        "tle_line2": "2 31179  99.0195  12.0814 0215230 345.6132  13.8961 13.91941548620189"
      },
      "geometry": {
        "type": "Point",
        "coordinates": [
          6.7860349237099875,
          32.427489216637156
        ]
      }
    },
    {
      "type": "Feature",
      "properties": {
        "norad_id": 31180,
        "name": "FENGYUN 1C DEB",
        "group": "fengyun-1c-debris",
        "lat": 26.835570743430075,
        "lon": 119.41482008692118,
        "alt_km": 643.8843119354997,
        "timestamp": "2025-12-18T19:29:52.825086+00:00",
        "meta_object_name": "FENGYUN 1C DEB",
        "meta_object_id": "1999-025BJJ",
        "meta_epoch": "2025-12-18T02:41:34.960416",
        "meta_mean_motion": 13.70347293,
        "meta_eccentricity": 0.04981374,
        "meta_inclination": 99.2178,
        "meta_ra_of_asc_node": 123.4529,
        "meta_arg_of_pericenter": 45.9587,
        "meta_mean_anomaly": 130.4919,
        "meta_ephemeris_type": 0,
        "meta_classification_type": "U",
        "meta_norad_cat_id": 31180,
        "meta_element_set_no": 999,
        "meta_rev_at_epoch": 64140,
        "meta_bstar": 0.00015187392,
        "meta_mean_motion_dot": 2.8e-06,
        "meta_mean_motion_ddot": 0,
        "tle_line1": "1 31180U 99025BJJ 25352.11221019  .00000280  00000+0  15187-3 0  9996",
        "tle_line2": "2 31180  99.2178 123.4529 0498137  45.9587 130.4919 13.70347293641408"
      },
      "geometry": {
        "type": "Point",
        "coordinates": [
          119.41482008692118,
          26.835570743430075
        ]
      }
    },
    {
      "type": "Feature",
      "properties": {
        "norad_id": 31181,
        "name": "FENGYUN 1C DEB",
        "group": "fengyun-1c-debris",
        "lat": 73.27047666314711,
        "lon": -123.83631377193142,
        "alt_km": 821.9519836321897,
        "timestamp": "2025-12-18T19:29:52.825096+00:00",
        "meta_object_name": "FENGYUN 1C DEB",
        "meta_object_id": "1999-025BJK",
        "meta_epoch": "2025-12-16T00:49:27.083136",
        "meta_mean_motion": 14.11897653,
        "meta_eccentricity": 0.00479368,
        "meta_inclination": 98.7771,
        "meta_ra_of_asc_node": 22.5146,
        "meta_arg_of_pericenter": 65.4183,
        "meta_mean_anomaly": 325.7974,
        "meta_ephemeris_type": 0,
        "meta_classification_type": "U",
        "meta_norad_cat_id": 31181,
        "meta_element_set_no": 999,
        "meta_rev_at_epoch": 95814,
        "meta_bstar": 0.00086139696,
        "meta_mean_motion_dot": 1.548e-05,
        "meta_mean_motion_ddot": 0,
        "tle_line1": "1 31181U 99025BJK 25350.03434124  .00001548  00000+0  86140-3 0  9994",
        "tle_line2": "2 31181  98.7771  22.5146 0047936  65.4183 325.7974 14.11897653958140"
      },
      "geometry": {
        "type": "Point",
        "coordinates": [
          -123.83631377193142,
          73.27047666314711
        ]
      }
    },
    {
      "type": "Feature",
      "properties": {
        "norad_id": 31182,
        "name": "FENGYUN 1C DEB",
        "group": "fengyun-1c-debris",
        "lat": -45.05953673807432,
        "lon": -9.674766524883097,
        "alt_km": 866.8704749480248,
        "timestamp": "2025-12-18T19:29:52.825106+00:00",
        "meta_object_name": "FENGYUN 1C DEB",
        "meta_object_id": "1999-025BJL",
        "meta_epoch": "2025-12-17T10:29:25.287072",
        "meta_mean_motion": 14.14559703,
        "meta_eccentricity": 0.00234665,
        "meta_inclination": 98.6819,
        "meta_ra_of_asc_node": 340.1808,
        "meta_arg_of_pericenter": 123.4909,
        "meta_mean_anomaly": 31.1675,
        "meta_ephemeris_type": 0,
        "meta_classification_type": "U",
        "meta_norad_cat_id": 31182,
        "meta_element_set_no": 999,
        "meta_rev_at_epoch": 96147,
        "meta_bstar": 0.00031818865,
        "meta_mean_motion_dot": 5.7e-06,
        "meta_mean_motion_ddot": 0,
        "tle_line1": "1 31182U 99025BJL 25351.43709823  .00000570  00000+0  31819-3 0  9998",
        "tle_line2": "2 31182  98.6819 340.1808 0023466 123.4909  31.1675 14.14559703961470"
      },
      "geometry": {
        "type": "Point",
        "coordinates": [
          -9.674766524883097,
          -45.05953673807432
        ]
      }
    },
    {
      "type": "Feature",
      "properties": {
        "norad_id": 31183,
        "name": "FENGYUN 1C DEB",
        "group": "fengyun-1c-debris",
        "lat": -68.09563360604264,
        "lon": 0.3054781605032809,
        "alt_km": 762.9887801120931,
        "timestamp": "2025-12-18T19:29:52.825116+00:00",
        "meta_object_name": "FENGYUN 1C DEB",
        "meta_object_id": "1999-025BJM",
        "meta_epoch": "2025-12-18T04:59:29.136768",
        "meta_mean_motion": 14.50482477,
        "meta_eccentricity": 0.00476997,
        "meta_inclination": 99.0357,
        "meta_ra_of_asc_node": 336.3442,
        "meta_arg_of_pericenter": 91.339,
        "meta_mean_anomaly": 284.5093,
        "meta_ephemeris_type": 0,
        "meta_classification_type": "U",
        "meta_norad_cat_id": 31183,
        "meta_element_set_no": 999,
        "meta_rev_at_epoch": 97562,
        "meta_bstar": 0.00096456435,
        "meta_mean_motion_dot": 3.778e-05,
        "meta_mean_motion_ddot": 0,
        "tle_line1": "1 31183U 99025BJM 25352.20797612  .00003778  00000+0  96456-3 0  9999",
        "tle_line2": "2 31183  99.0357 336.3442 0047699  91.3390 284.5093 14.50482477975628"
      },
      "geometry": {
        "type": "Point",
        "coordinates": [
          0.3054781605032809,
          -68.09563360604264
        ]
      }
    }
  ]
}